ONEWEB-0628             
1 55169U 23004AF  26194.93556556  .00000245  00000+0  64636-3 0  9999
2 55169  87.8968 345.3344 0001546  75.0422 285.0877 13.12443829171548
ONEWEB-0629             
1 55170U 23004AG  26194.99490398  .00000051  00000+0  98229-4 0  9999
2 55170  87.9144   0.5365 0001548  89.4674 270.6635 13.17650036171110
ONEWEB-0631             
1 55171U 23004AH  26194.88589360 -.00000010  00000+0 -57247-4 0  9998
2 55171  87.9194 330.1271 0002337  90.3076 269.8324 13.18686260173192
ONEWEB-0709             
1 55172U 23004AJ  26195.06080390 -.00000393  00000+0 -11434-2 0  9999
2 55172  87.8880  15.7267 0002656 100.6765 259.4662 13.11415249169396
ONEWEB-0710             
1 55173U 23004AK  26195.00924529  .00000059  00000+0  11869-3 0  9995
2 55173  87.9144   0.5288 0001878  87.7247 272.4100 13.17648503171113
ONEWEB-0711             
1 55174U 23004AL  26195.03199375  .00000621  00000+0  17160-2 0  9996
2 55174  87.8883  15.7203 0001920  67.8329 292.3003 13.11416606169353
ONEWEB-0713             
1 55175U 23004AM  26195.05063918 -.00000066  00000+0 -22252-3 0  9996
2 55175  87.8884  15.7190 0001878  79.0161 281.1178 13.11414385169341
ONEWEB-0715             
1 55176U 23004AN  26195.04555571  .00000179  00000+0  47059-3 0  9992
2 55176  87.8882  15.7204 0002535  91.2723 268.8695 13.11414521169389
ONEWEB-0716             
1 55177U 23004AP  26195.00249455  .00000028  00000+0  39529-4 0  9997
2 55177  87.9144   0.5330 0001747  97.8064 262.3266 13.17648506171113
ONEWEB-0717             
1 55178U 23004AQ  26194.98561970 -.00000004  00000+0 -42549-4 0  9995
2 55178  87.9154   0.5267 0002097  77.9189 282.2178 13.17650295171166
ONEWEB-0719             
1 55179U 23004AR  26194.99573894  .00000012  00000+0 -26160-5 0  9995
2 55179  87.9155   0.5048 0001668  94.8891 265.2431 13.17650719171115
ONEWEB-0530             
1 55796U 23029A   26195.13509758  .00000136  00000+0  30215-3 0  9992
2 55796  87.9181 269.0965 0001863  87.5038 272.6308 13.20773100164704
ONEWEB-0534             
1 55797U 23029B   26195.19905714  .00000041  00000+0  69918-4 0  9999
2 55797  87.9174 269.0858 0002054 103.5430 256.5933 13.20773593164718
ONEWEB-0556             
1 55798U 23029C   26195.13005464 -.00000007  00000+0 -49503-4 0  9999
2 55798  87.9175 269.0975 0001456 109.8578 250.2712 13.20808876164705
ONEWEB-0562             
1 55799U 23029D   26195.19233711  .00000039  00000+0  64738-4 0  9994
2 55799  87.9182 269.0656 0001341  82.2680 277.8605 13.20772550164717
ONEWEB-0563             
1 55800U 23029E   26195.18727962  .00000002  00000+0 -26782-4 0  9990
2 55800  87.9173 269.0981 0002070 103.0458 257.0907 13.20770033164704
