{"fetched_at":"2026-07-14T17:40:23.520Z","source":"https://celestrak.org/NORAD/elements/gp.php?GROUP=oneweb&FORMAT=JSON","constellation":"oneweb","records":[{"OBJECT_NAME":"ONEWEB-0628","OBJECT_ID":"2023-004AF","EPOCH":"2026-07-13T22:27:12.864384","CLASSIFICATION_TYPE":"U","MEAN_MOTION":13.12443829,"ECCENTRICITY":0.0001546,"INCLINATION":87.8968,"RA_OF_ASC_NODE":345.3344,"ARG_OF_PERICENTER":75.0422,"MEAN_ANOMALY":285.0877,"EPHEMERIS_TYPE":0,"NORAD_CAT_ID":55169,"ELEMENT_SET_NO":999,"REV_AT_EPOCH":17154,"BSTAR":0.00064636,"MEAN_MOTION_DOT":0.00000245,"MEAN_MOTION_DDOT":0},{"OBJECT_NAME":"ONEWEB-0629","OBJECT_ID":"2023-004AG","EPOCH":"2026-07-13T23:52:39.703872","CLASSIFICATION_TYPE":"U","MEAN_MOTION":13.17650036,"ECCENTRICITY":0.0001548,"INCLINATION":87.9144,"RA_OF_ASC_NODE":0.5365,"ARG_OF_PERICENTER":89.4674,"MEAN_ANOMALY":270.6635,"EPHEMERIS_TYPE":0,"NORAD_CAT_ID":55170,"ELEMENT_SET_NO":999,"REV_AT_EPOCH":17111,"BSTAR":0.000098229,"MEAN_MOTION_DOT":5.1e-7,"MEAN_MOTION_DDOT":0},{"OBJECT_NAME":"ONEWEB-0631","OBJECT_ID":"2023-004AH","EPOCH":"2026-07-13T21:15:41.207040","CLASSIFICATION_TYPE":"U","MEAN_MOTION":13.1868626,"ECCENTRICITY":0.0002337,"INCLINATION":87.9194,"RA_OF_ASC_NODE":330.1271,"ARG_OF_PERICENTER":90.3076,"MEAN_ANOMALY":269.8324,"EPHEMERIS_TYPE":0,"NORAD_CAT_ID":55171,"ELEMENT_SET_NO":999,"REV_AT_EPOCH":17319,"BSTAR":-0.000057247,"MEAN_MOTION_DOT":-1e-7,"MEAN_MOTION_DDOT":0},{"OBJECT_NAME":"ONEWEB-0709","OBJECT_ID":"2023-004AJ","EPOCH":"2026-07-14T01:27:33.456960","CLASSIFICATION_TYPE":"U","MEAN_MOTION":13.11415249,"ECCENTRICITY":0.0002656,"INCLINATION":87.888,"RA_OF_ASC_NODE":15.7267,"ARG_OF_PERICENTER":100.6765,"MEAN_ANOMALY":259.4662,"EPHEMERIS_TYPE":0,"NORAD_CAT_ID":55172,"ELEMENT_SET_NO":999,"REV_AT_EPOCH":16939,"BSTAR":-0.0011434,"MEAN_MOTION_DOT":-0.00000393,"MEAN_MOTION_DDOT":0},{"OBJECT_NAME":"ONEWEB-0710","OBJECT_ID":"2023-004AK","EPOCH":"2026-07-14T00:13:18.793056","CLASSIFICATION_TYPE":"U","MEAN_MOTION":13.17648503,"ECCENTRICITY":0.0001878,"INCLINATION":87.9144,"RA_OF_ASC_NODE":0.5288,"ARG_OF_PERICENTER":87.7247,"MEAN_ANOMALY":272.41,"EPHEMERIS_TYPE":0,"NORAD_CAT_ID":55173,"ELEMENT_SET_NO":999,"REV_AT_EPOCH":17111,"BSTAR":0.00011869,"MEAN_MOTION_DOT":5.9e-7,"MEAN_MOTION_DDOT":0},{"OBJECT_NAME":"ONEWEB-0711","OBJECT_ID":"2023-004AL","EPOCH":"2026-07-14T00:46:04.260000","CLASSIFICATION_TYPE":"U","MEAN_MOTION":13.11416606,"ECCENTRICITY":0.000192,"INCLINATION":87.8883,"RA_OF_ASC_NODE":15.7203,"ARG_OF_PERICENTER":67.8329,"MEAN_ANOMALY":292.3003,"EPHEMERIS_TYPE":0,"NORAD_CAT_ID":55174,"ELEMENT_SET_NO":999,"REV_AT_EPOCH":16935,"BSTAR":0.001716,"MEAN_MOTION_DOT":0.00000621,"MEAN_MOTION_DDOT":0},{"OBJECT_NAME":"ONEWEB-0713","OBJECT_ID":"2023-004AM","EPOCH":"2026-07-14T01:12:55.225152","CLASSIFICATION_TYPE":"U","MEAN_MOTION":13.11414385,"ECCENTRICITY":0.0001878,"INCLINATION":87.8884,"RA_OF_ASC_NODE":15.719,"ARG_OF_PERICENTER":79.0161,"MEAN_ANOMALY":281.1178,"EPHEMERIS_TYPE":0,"NORAD_CAT_ID":55175,"ELEMENT_SET_NO":999,"REV_AT_EPOCH":16934,"BSTAR":-0.00022252,"MEAN_MOTION_DOT":-6.6e-7,"MEAN_MOTION_DDOT":0},{"OBJECT_NAME":"ONEWEB-0715","OBJECT_ID":"2023-004AN","EPOCH":"2026-07-14T01:05:36.013344","CLASSIFICATION_TYPE":"U","MEAN_MOTION":13.11414521,"ECCENTRICITY":0.0002535,"INCLINATION":87.8882,"RA_OF_ASC_NODE":15.7204,"ARG_OF_PERICENTER":91.2723,"MEAN_ANOMALY":268.8695,"EPHEMERIS_TYPE":0,"NORAD_CAT_ID":55176,"ELEMENT_SET_NO":999,"REV_AT_EPOCH":16938,"BSTAR":0.00047059,"MEAN_MOTION_DOT":0.00000179,"MEAN_MOTION_DDOT":0},{"OBJECT_NAME":"ONEWEB-0716","OBJECT_ID":"2023-004AP","EPOCH":"2026-07-14T00:03:35.529120","CLASSIFICATION_TYPE":"U","MEAN_MOTION":13.17648506,"ECCENTRICITY":0.0001747,"INCLINATION":87.9144,"RA_OF_ASC_NODE":0.533,"ARG_OF_PERICENTER":97.8064,"MEAN_ANOMALY":262.3266,"EPHEMERIS_TYPE":0,"NORAD_CAT_ID":55177,"ELEMENT_SET_NO":999,"REV_AT_EPOCH":17111,"BSTAR":0.000039529,"MEAN_MOTION_DOT":2.8e-7,"MEAN_MOTION_DDOT":0},{"OBJECT_NAME":"ONEWEB-0717","OBJECT_ID":"2023-004AQ","EPOCH":"2026-07-13T23:39:17.542080","CLASSIFICATION_TYPE":"U","MEAN_MOTION":13.17650295,"ECCENTRICITY":0.0002097,"INCLINATION":87.9154,"RA_OF_ASC_NODE":0.5267,"ARG_OF_PERICENTER":77.9189,"MEAN_ANOMALY":282.2178,"EPHEMERIS_TYPE":0,"NORAD_CAT_ID":55178,"ELEMENT_SET_NO":999,"REV_AT_EPOCH":17116,"BSTAR":-0.000042549,"MEAN_MOTION_DOT":-4e-8,"MEAN_MOTION_DDOT":0},{"OBJECT_NAME":"ONEWEB-0719","OBJECT_ID":"2023-004AR","EPOCH":"2026-07-13T23:53:51.844416","CLASSIFICATION_TYPE":"U","MEAN_MOTION":13.17650719,"ECCENTRICITY":0.0001668,"INCLINATION":87.9155,"RA_OF_ASC_NODE":0.5048,"ARG_OF_PERICENTER":94.8891,"MEAN_ANOMALY":265.2431,"EPHEMERIS_TYPE":0,"NORAD_CAT_ID":55179,"ELEMENT_SET_NO":999,"REV_AT_EPOCH":17111,"BSTAR":-0.000002616,"MEAN_MOTION_DOT":1.2e-7,"MEAN_MOTION_DDOT":0},{"OBJECT_NAME":"ONEWEB-0530","OBJECT_ID":"2023-029A","EPOCH":"2026-07-14T03:14:32.430912","CLASSIFICATION_TYPE":"U","MEAN_MOTION":13.207731,"ECCENTRICITY":0.0001863,"INCLINATION":87.9181,"RA_OF_ASC_NODE":269.0965,"ARG_OF_PERICENTER":87.5038,"MEAN_ANOMALY":272.6308,"EPHEMERIS_TYPE":0,"NORAD_CAT_ID":55796,"ELEMENT_SET_NO":999,"REV_AT_EPOCH":16470,"BSTAR":0.00030215,"MEAN_MOTION_DOT":0.00000136,"MEAN_MOTION_DDOT":0},{"OBJECT_NAME":"ONEWEB-0534","OBJECT_ID":"2023-029B","EPOCH":"2026-07-14T04:46:38.536896","CLASSIFICATION_TYPE":"U","MEAN_MOTION":13.20773593,"ECCENTRICITY":0.0002054,"INCLINATION":87.9174,"RA_OF_ASC_NODE":269.0858,"ARG_OF_PERICENTER":103.543,"MEAN_ANOMALY":256.5933,"EPHEMERIS_TYPE":0,"NORAD_CAT_ID":55797,"ELEMENT_SET_NO":999,"REV_AT_EPOCH":16471,"BSTAR":0.000069918,"MEAN_MOTION_DOT":4.1e-7,"MEAN_MOTION_DDOT":0},{"OBJECT_NAME":"ONEWEB-0556","OBJECT_ID":"2023-029C","EPOCH":"2026-07-14T03:07:16.720896","CLASSIFICATION_TYPE":"U","MEAN_MOTION":13.20808876,"ECCENTRICITY":0.0001456,"INCLINATION":87.9175,"RA_OF_ASC_NODE":269.0975,"ARG_OF_PERICENTER":109.8578,"MEAN_ANOMALY":250.2712,"EPHEMERIS_TYPE":0,"NORAD_CAT_ID":55798,"ELEMENT_SET_NO":999,"REV_AT_EPOCH":16470,"BSTAR":-0.000049503,"MEAN_MOTION_DOT":-7e-8,"MEAN_MOTION_DDOT":0},{"OBJECT_NAME":"ONEWEB-0562","OBJECT_ID":"2023-029D","EPOCH":"2026-07-14T04:36:57.926304","CLASSIFICATION_TYPE":"U","MEAN_MOTION":13.2077255,"ECCENTRICITY":0.0001341,"INCLINATION":87.9182,"RA_OF_ASC_NODE":269.0656,"ARG_OF_PERICENTER":82.268,"MEAN_ANOMALY":277.8605,"EPHEMERIS_TYPE":0,"NORAD_CAT_ID":55799,"ELEMENT_SET_NO":999,"REV_AT_EPOCH":16471,"BSTAR":0.000064738,"MEAN_MOTION_DOT":3.9e-7,"MEAN_MOTION_DDOT":0},{"OBJECT_NAME":"ONEWEB-0563","OBJECT_ID":"2023-029E","EPOCH":"2026-07-14T04:29:40.959168","CLASSIFICATION_TYPE":"U","MEAN_MOTION":13.20770033,"ECCENTRICITY":0.000207,"INCLINATION":87.9173,"RA_OF_ASC_NODE":269.0981,"ARG_OF_PERICENTER":103.0458,"MEAN_ANOMALY":257.0907,"EPHEMERIS_TYPE":0,"NORAD_CAT_ID":55800,"ELEMENT_SET_NO":999,"REV_AT_EPOCH":16470,"BSTAR":-0.000026782,"MEAN_MOTION_DOT":2e-8,"MEAN_MOTION_DDOT":0}]}
